NORAD_CAT_ID,OBJECT_NAME,OBJECT_TYPE,EPOCH,MEAN_MOTION,ECCENTRICITY,INCLINATION,RA_OF_ASC_NODE,ARG_OF_PERICENTER,MEAN_ANOMALY,BSTAR,MEAN_MOTION_DOT,MEAN_MOTION_DDOT,TLE_LINE0,TLE_LINE1,TLE_LINE2,SEMIMAJOR_AXIS,PERIOD,APOGEE,PERIGEE,DECAYED
52375.0,STARLINK-3785,PAYLOAD,2023-06-06 16:59:55,15.08840363,0.0001079,53.2178,29.6343,99.1509,260.9606,3.7696e-05,3.12e-06,0.0,0 STARLINK-3785,1 52375U 22045AW  23157.70828208  .00000312  00000-0  37696-4 0  9999,2 52375  53.2178  29.6343 0001079  99.1509 260.9606 15.08840363 63902,6917.879,95.438,540.491,538.998,0.0
52375.0,STARLINK-3785,PAYLOAD,2023-06-07 10:29:09,15.08841295,0.0001156,53.2178,26.3638,90.5125,269.6,7.7128e-05,9.4e-06,0.0,0 STARLINK-3785,1 52375U 22045AW  23158.43691976  .00000940  00000-0  77128-4 0  9991,2 52375  53.2178  26.3638 0001156  90.5125 269.6000 15.08841295 64010,6917.876,95.437,540.541,538.942,0.0
52375.0,STARLINK-3785,PAYLOAD,2023-06-07 18:26:05,15.08839477,0.0001132,53.2178,24.8768,86.7147,273.3975,8.3696e-05,1.044e-05,0.0,0 STARLINK-3785,1 52375U 22045AW  23158.76812071  .00001044  00000-0  83696-4 0  9991,2 52375  53.2178  24.8768 0001132  86.7147 273.3975 15.08839477 64069,6917.882,95.438,540.53,538.964,0.0
52375.0,STARLINK-3785,PAYLOAD,2023-06-07 21:36:51,15.08841089,0.0001059,53.2179,24.2819,77.2684,282.8427,0.00013077,1.794e-05,0.0,0 STARLINK-3785,1 52375U 22045AW  23158.90059862  .00001794  00000-0  13077-3 0  9995,2 52375  53.2179  24.2819 0001059  77.2684 282.8427 15.08841089 64081,6917.877,95.437,540.475,539.009,0.0
52375.0,STARLINK-3785,PAYLOAD,2023-06-08 21:27:38,15.08840861,0.000109,53.2179,19.8223,88.1864,271.9253,8.1475e-05,1.009e-05,0.0,0 STARLINK-3785,1 52375U 22045AW  23159.89420023  .00001009  00000-0  81475-4 0  9992,2 52375  53.2179  19.8223 0001090  88.1864 271.9253 15.08840861 64236,6917.878,95.438,540.497,538.989,0.0
52375.0,STARLINK-3785,PAYLOAD,2023-06-09 21:18:26,15.08838833,0.0001094,53.2176,15.3613,90.708,269.4038,6.6893e-05,7.77e-06,0.0,0 STARLINK-3785,1 52375U 22045AW  23160.88780274  .00000777  00000-0  66893-4 0  9998,2 52375  53.2176  15.3613 0001094  90.7080 269.4038 15.08838833 64385,6917.884,95.438,540.506,538.992,0.0
52375.0,STARLINK-3785,PAYLOAD,2023-06-10 00:29:12,15.08845088,0.0001122,53.2175,14.7664,88.9794,271.1327,7.7293e-05,9.43e-06,0.0,0 STARLINK-3785,1 52375U 22045AW  23161.02027869  .00000943  00000-0  77293-4 0  9990,2 52375  53.2175  14.7664 0001122  88.9794 271.1327 15.08845088 64400,6917.865,95.437,540.506,538.954,0.0
52375.0,STARLINK-3785,PAYLOAD,2023-06-10 10:01:31,15.0883116,8.72e-05,53.2168,12.9813,98.7395,261.3696,9.1404e-05,1.167e-05,0.0,0 STARLINK-3785,1 52375U 22045AW  23161.41772699  .00001167  00000-0  91404-4 0  9990,2 52375  53.2168  12.9813 0000872  98.7395 261.3696 15.08831160 64467,6917.907,95.438,540.376,539.169,0.0
52375.0,STARLINK-3785,PAYLOAD,2023-06-10 21:09:13,15.08833591,0.0001197,53.2179,10.9029,81.7231,278.3897,0.00015046,2.107e-05,0.0,0 STARLINK-3785,1 52375U 22045AW  23161.88140589  .00002107  00000-0  15046-3 0  9990,2 52375  53.2179  10.9029 0001197  81.7231 278.3897 15.08833591 64537,6917.9,95.438,540.593,538.937,0.0
52375.0,STARLINK-3785,PAYLOAD,2023-06-11 13:03:04,15.08841967,0.000113,53.2184,7.9296,99.4967,260.6152,5.2111e-05,5.42e-06,0.0,0 STARLINK-3785,1 52375U 22045AW  23162.54380449  .00000542  00000-0  52111-4 0  9991,2 52375  53.2184   7.9296 0001130  99.4967 260.6152 15.08841967 64639,6917.874,95.437,540.521,538.958,0.0
52375.0,STARLINK-3785,PAYLOAD,2023-06-11 16:13:51,15.08837157,0.0001049,53.2176,7.3335,92.7078,267.4034,1.0733e-05,-1.17e-06,0.0,0 STARLINK-3785,1 52375U 22045AW  23162.67628888 -.00000117  00000-0  10733-4 0  9990,2 52375  53.2176   7.3335 0001049  92.7078 267.4034 15.08837157 64658,6917.889,95.438,540.48,539.028,0.0
52375.0,STARLINK-3785,PAYLOAD,2023-06-12 06:32:19,15.08841045,0.0001143,53.2165,4.6555,86.6703,273.442,2.1506e-05,5.4e-07,0.0,0 STARLINK-3785,1 52375U 22045AW  23163.27244596  .00000054  00000-0  21506-4 0  9996,2 52375  53.2165   4.6555 0001143  86.6703 273.4420 15.08841045 64749,6917.877,95.437,540.533,538.951,0.0
52375.0,STARLINK-3785,PAYLOAD,2023-06-12 16:04:38,15.08838214,0.000103,53.2176,2.8715,97.7648,262.3461,6.9325e-05,8.16e-06,0.0,0 STARLINK-3785,1 52375U 22045AW  23163.66988705  .00000816  00000-0  69325-4 0  9993,2 52375  53.2176   2.8715 0001030  97.7648 262.3461 15.08838214 64808,6917.886,95.438,540.463,539.038,0.0
52375.0,STARLINK-3785,PAYLOAD,2023-06-12 20:50:47,15.08842237,0.0001069,53.2175,1.9796,94.0831,266.0283,0.00010481,1.381e-05,0.0,0 STARLINK-3785,1 52375U 22045AW  23163.86860445  .00001381  00000-0  10481-3 0  9991,2 52375  53.2175   1.9796 0001069  94.0831 266.0283 15.08842237 64838,6917.874,95.437,540.478,538.999,0.0
52375.0,STARLINK-3785,PAYLOAD,2023-06-13 19:06:11,15.0883036,9.64e-05,53.2178,357.8159,90.4103,269.7,0.00023194,3.405e-05,0.0,0 STARLINK-3785,1 52375U 22045AW  23164.79597112  .00003405  00000-0  23194-3 0  9996,2 52375  53.2178 357.8159 0000964  90.4103 269.7000 15.08830360 64978,6917.91,95.438,540.442,539.108,0.0
52375.0,STARLINK-3785,PAYLOAD,2023-06-13 22:16:57,15.08843691,0.0001039,53.2179,357.2208,97.0643,263.0468,8.8307e-05,1.118e-05,0.0,0 STARLINK-3785,1 52375U 22045AW  23164.92844438  .00001118  00000-0  88307-4 0  9994,2 52375  53.2179 357.2208 0001039  97.0643 263.0468 15.08843691 64992,6917.869,95.437,540.453,539.015,0.0
52375.0,STARLINK-3785,PAYLOAD,2023-06-14 12:35:26,15.08836917,0.0001153,53.2179,354.5451,88.5346,271.5779,6.9691e-05,8.21e-06,0.0,0 STARLINK-3785,1 52375U 22045AW  23165.52461012  .00000821  00000-0  69691-4 0  9999,2 52375  53.2179 354.5451 0001153  88.5346 271.5779 15.08836917 65087,6917.89,95.438,540.552,538.957,0.0
52375.0,STARLINK-3785,PAYLOAD,2023-06-14 18:56:58,15.08841143,0.0001107,53.2176,353.3572,82.1673,277.9444,8.5684e-05,1.076e-05,0.0,0 STARLINK-3785,1 52375U 22045AW  23165.78956688  .00001076  00000-0  85684-4 0  9998,2 52375  53.2176 353.3572 0001107  82.1673 277.9444 15.08841143 65128,6917.877,95.437,540.508,538.976,0.0
52375.0,STARLINK-3785,PAYLOAD,2023-06-15 06:04:40,15.0884394,0.0001032,53.2176,351.2755,93.0282,267.0828,7.7632e-05,9.48e-06,0.0,0 STARLINK-3785,1 52375U 22045AW  23166.25324394  .00000948  00000-0  77632-4 0  9995,2 52375  53.2176 351.2755 0001032  93.0282 267.0828 15.08843940 65192,6917.868,95.437,540.447,539.019,0.0
52375.0,STARLINK-3785,PAYLOAD,2023-06-15 12:26:13,15.08837249,0.0001263,53.2168,350.0882,69.7639,290.3489,3.7448e-05,3.08e-06,0.0,0 STARLINK-3785,1 52375U 22045AW  23166.51821160  .00000308  00000-0  37448-4 0  9998,2 52375  53.2168 350.0882 0001263  69.7639 290.3489 15.08837249 65235,6917.889,95.438,540.628,538.88,0.0
52375.0,STARLINK-3785,PAYLOAD,2023-06-15 18:47:45,15.08842364,0.0001007,53.2182,348.8968,82.0097,278.1009,2.7792e-05,1.55e-06,0.0,0 STARLINK-3785,1 52375U 22045AW  23166.78316807  .00000155  00000-0  27792-4 0  9995,2 52375  53.2182 348.8968 0001007  82.0097 278.1009 15.08842364 65273,6917.873,95.437,540.435,539.042,0.0
52375.0,STARLINK-3785,PAYLOAD,2023-06-16 12:16:59,15.08845657,0.0001128,53.2178,345.6244,90.8363,269.2758,7.3393e-05,8.81e-06,0.0,0 STARLINK-3785,1 52375U 22045AW  23167.51180409  .00000881  00000-0  73393-4 0  9998,2 52375  53.2178 345.6244 0001128  90.8363 269.2758 15.08845657 65389,6917.863,95.437,540.508,538.948,0.0
52375.0,STARLINK-3785,PAYLOAD,2023-06-16 20:13:54,15.08855493,0.0001226,53.2176,344.1392,90.6176,269.4956,0.0001716,2.445e-05,0.0,0 STARLINK-3785,1 52375U 22045AW  23167.84299333  .00002445  00000-0  17160-3 0  9998,2 52375  53.2176 344.1392 0001226  90.6176 269.4956 15.08855493 65431,6917.833,95.437,540.546,538.85,0.0
52375.0,STARLINK-3785,PAYLOAD,2023-06-16 21:49:17,15.08856987,0.000106,53.2184,343.8406,89.4826,270.6288,0.00016893,2.403e-05,0.0,0 STARLINK-3785,1 52375U 22045AW  23167.90923227  .00002403  00000-0  16893-3 0  9997,2 52375  53.2184 343.8406 0001060  89.4826 270.6288 15.08856987 65448,6917.828,95.436,540.427,538.96,0.0
52375.0,STARLINK-3785,PAYLOAD,2023-06-17 10:32:24,15.08831201,0.0001867,53.2165,341.4607,81.6568,278.4636,-4.5972e-05,-1.02e-05,0.0,0 STARLINK-3785,1 52375U 22045AW  23168.43917397 -.00001020  00000-0 -45972-4 0  9994,2 52375  53.2165 341.4607 0001867  81.6568 278.4636 15.08831201 65520,6917.907,95.438,541.064,538.481,0.0
52375.0,STARLINK-3785,PAYLOAD,2023-06-17 12:07:47,15.08825397,0.0001259,53.2175,341.1647,105.0423,255.0709,-0.00018651,-3.254e-05,0.0,0 STARLINK-3785,1 52375U 22045AW  23168.50541508 -.00003254  00000-0 -18651-3 0  9993,2 52375  53.2175 341.1647 0001259 105.0423 255.0709 15.08825397 65530,6917.925,95.438,540.661,538.919,0.0
52375.0,STARLINK-3785,PAYLOAD,2023-06-17 18:29:20,15.08829013,0.0001464,53.2172,339.9748,97.2673,262.8486,-0.00012162,-2.222e-05,0.0,0 STARLINK-3785,1 52375U 22045AW  23168.77037521 -.00002222  00000-0 -12162-3 0  9992,2 52375  53.2172 339.9748 0001464  97.2673 262.8486 15.08829013 65572,6917.914,95.438,540.792,538.766,0.0
52375.0,STARLINK-3785,PAYLOAD,2023-06-18 04:01:39,15.08833188,0.0001123,53.2179,338.1924,102.4398,257.6719,-6.1962e-05,-1.274e-05,0.0,0 STARLINK-3785,1 52375U 22045AW  23169.16781489 -.00001274  00000-0 -61962-4 0  9994,2 52375  53.2179 338.1924 0001123 102.4398 257.6719 15.08833188 65637,6917.901,95.438,540.543,538.989,0.0
52375.0,STARLINK-3785,PAYLOAD,2023-06-18 18:20:06,15.08846327,0.0001096,53.2179,335.5163,104.8991,255.2122,9.3433e-05,1.2e-05,0.0,0 STARLINK-3785,1 52375U 22045AW  23169.76396928  .00001200  00000-0  93433-4 0  9995,2 52375  53.2179 335.5163 0001096 104.8991 255.2122 15.08846327 65728,6917.861,95.437,540.484,538.968,0.0
52375.0,STARLINK-3785,PAYLOAD,2023-06-19 10:13:58,15.0883767,0.0001039,53.2183,332.5433,104.1381,255.9726,0.00027915,4.157e-05,0.0,0 STARLINK-3785,1 52375U 22045AW  23170.42637534  .00004157  00000-0  27915-3 0  9996,2 52375  53.2183 332.5433 0001039 104.1381 255.9726 15.08837670 65822,6917.888,95.438,540.471,539.034,0.0
